{
  "type": "FeatureCollection",
  "features": [
    {
      "type": "Feature",
      "properties": {
        "norad_id": 66558,
        "name": "STARLINK-35695",
        "group": "last-30-days",
        "lat": -42.6986647551083,
        "lon": 55.441980068785085,
        "alt_km": 391.69830219195956,
        "timestamp": "2025-12-07T05:38:08.684962+00:00",
        "meta_object_name": "STARLINK-35695",
        "meta_object_id": "2025-268B",
        "meta_epoch": "2025-12-06T14:00:01.999872",
        "meta_mean_motion": 15.62103988,
        "meta_eccentricity": 0.00012905,
        "meta_inclination": 43,
        "meta_ra_of_asc_node": 157.3309,
        "meta_arg_of_pericenter": 266.0387,
        "meta_mean_anomaly": 293.4202,
        "meta_ephemeris_type": 0,
        "meta_classification_type": "U",
        "meta_norad_cat_id": 66558,
        "meta_element_set_no": 999,
        "meta_rev_at_epoch": 367,
        "meta_bstar": -0.025231237,
        "meta_mean_motion_dot": -0.01997645,
        "meta_mean_motion_ddot": 0,
        "tle_line1": "1 66558U 25268B   25340.58335648 -.01997645  00000+0 -25231-1 0  9995",
        "tle_line2": "2 66558  43.0000 157.3309 0001290 266.0387 293.4202 15.62103988  3672"
      },
      "geometry": {
        "type": "Point",
        "coordinates": [
          55.441980068785085,
          -42.6986647551083
        ]
      }
    },
    {
      "type": "Feature",
      "properties": {
        "norad_id": 66559,
        "name": "STARLINK-35419",
        "group": "last-30-days",
        "lat": -42.851613128808815,
        "lon": 58.03839128305798,
        "alt_km": 391.6364928515386,
        "timestamp": "2025-12-07T05:38:08.684973+00:00",
        "meta_object_name": "STARLINK-35419",
        "meta_object_id": "2025-268C",
        "meta_epoch": "2025-12-06T14:00:01.999872",
        "meta_mean_motion": 15.62108715,
        "meta_eccentricity": 0.00013879,
        "meta_inclination": 43.0002,
        "meta_ra_of_asc_node": 157.3269,
        "meta_arg_of_pericenter": 262.8098,
        "meta_mean_anomaly": 298.5612,
        "meta_ephemeris_type": 0,
        "meta_classification_type": "U",
        "meta_norad_cat_id": 66559,
        "meta_element_set_no": 999,
        "meta_rev_at_epoch": 368,
        "meta_bstar": -0.025284204,
        "meta_mean_motion_dot": -0.0200172,
        "meta_mean_motion_ddot": 0,
        "tle_line1": "1 66559U 25268C   25340.58335648 -.02001720  00000+0 -25284-1 0  9995",
        "tle_line2": "2 66559  43.0002 157.3269 0001387 262.8098 298.5612 15.62108715  3685"
      },
      "geometry": {
        "type": "Point",
        "coordinates": [
          58.03839128305798,
          -42.851613128808815
        ]
      }
    },
    {
      "type": "Feature",
      "properties": {
        "norad_id": 66560,
        "name": "STARLINK-35411",
        "group": "last-30-days",
        "lat": -42.944762028545014,
        "lon": 60.64499723281787,
        "alt_km": 391.64976260860385,
        "timestamp": "2025-12-07T05:38:08.684983+00:00",
        "meta_object_name": "STARLINK-35411",
        "meta_object_id": "2025-268D",
        "meta_epoch": "2025-12-06T14:00:01.999872",
        "meta_mean_motion": 15.62104978,
        "meta_eccentricity": 0.00013908,
        "meta_inclination": 42.9997,
        "meta_ra_of_asc_node": 157.3228,
        "meta_arg_of_pericenter": 260.3162,
        "meta_mean_anomaly": 302.9758,
        "meta_ephemeris_type": 0,
        "meta_classification_type": "U",
        "meta_norad_cat_id": 66560,
        "meta_element_set_no": 999,
        "meta_rev_at_epoch": 368,
        "meta_bstar": -0.025259579,
        "meta_mean_motion_dot": -0.01999755,
        "meta_mean_motion_ddot": 0,
        "tle_line1": "1 66560U 25268D   25340.58335648 -.01999755  00000+0 -25260-1 0  9994",
        "tle_line2": "2 66560  42.9997 157.3228 0001390 260.3162 302.9758 15.62104978  3680"
      },
      "geometry": {
        "type": "Point",
        "coordinates": [
          60.64499723281787,
          -42.944762028545014
        ]
      }
    },
    {
      "type": "Feature",
      "properties": {
        "norad_id": 66561,
        "name": "STARLINK-35305",
        "group": "last-30-days",
        "lat": -42.953295785428374,
        "lon": 65.86814843604208,
        "alt_km": 391.6678748604345,
        "timestamp": "2025-12-07T05:38:08.684993+00:00",
        "meta_object_name": "STARLINK-35305",
        "meta_object_id": "2025-268E",
        "meta_epoch": "2025-12-06T14:00:01.999872",
        "meta_mean_motion": 15.62105963,
        "meta_eccentricity": 0.0001387,
        "meta_inclination": 42.9995,
        "meta_ra_of_asc_node": 157.3123,
        "meta_arg_of_pericenter": 259.9945,
        "meta_mean_anomaly": 307.1314,
        "meta_ephemeris_type": 0,
        "meta_classification_type": "U",
        "meta_norad_cat_id": 66561,
        "meta_element_set_no": 999,
        "meta_rev_at_epoch": 363,
        "meta_bstar": -0.02527016,
        "meta_mean_motion_dot": -0.02000555,
        "meta_mean_motion_ddot": 0,
        "tle_line1": "1 66561U 25268E   25340.58335648 -.02000555  00000+0 -25270-1 0  9998",
        "tle_line2": "2 66561  42.9995 157.3123 0001387 259.9945 307.1314 15.62105963  3637"
      },
      "geometry": {
        "type": "Point",
        "coordinates": [
          65.86814843604208,
          -42.953295785428374
        ]
      }
    },
    {
      "type": "Feature",
      "properties": {
        "norad_id": 66562,
        "name": "STARLINK-35579",
        "group": "last-30-days",
        "lat": -42.97884482297046,
        "lon": 63.25648951295535,
        "alt_km": 391.7097053951329,
        "timestamp": "2025-12-07T05:38:08.685006+00:00",
        "meta_object_name": "STARLINK-35579",
        "meta_object_id": "2025-268F",
        "meta_epoch": "2025-12-06T14:00:01.999872",
        "meta_mean_motion": 15.62105813,
        "meta_eccentricity": 0.00013247,
        "meta_inclination": 42.9996,
        "meta_ra_of_asc_node": 157.3166,
        "meta_arg_of_pericenter": 259.382,
        "meta_mean_anomaly": 305.8275,
        "meta_ephemeris_type": 0,
        "meta_classification_type": "U",
        "meta_norad_cat_id": 66562,
        "meta_element_set_no": 999,
        "meta_rev_at_epoch": 368,
        "meta_bstar": -0.025272093,
        "meta_mean_motion_dot": -0.02000632,
        "meta_mean_motion_ddot": 0,
        "tle_line1": "1 66562U 25268F   25340.58335648 -.02000632  00000+0 -25272-1 0  9997",
        "tle_line2": "2 66562  42.9996 157.3166 0001324 259.3820 305.8275 15.62105813  3683"
      },
      "geometry": {
        "type": "Point",
        "coordinates": [
          63.25648951295535,
          -42.97884482297046
        ]
      }
    },
    {
      "type": "Feature",
      "properties": {
        "norad_id": 66563,
        "name": "STARLINK-35437",
        "group": "last-30-days",
        "lat": -42.86859459434123,
        "lon": 68.47375145196699,
        "alt_km": 391.72317765551816,
        "timestamp": "2025-12-07T05:38:08.685016+00:00",
        "meta_object_name": "STARLINK-35437",
        "meta_object_id": "2025-268G",
        "meta_epoch": "2025-12-06T14:00:01.999872",
        "meta_mean_motion": 15.62106782,
        "meta_eccentricity": 0.00013255,
        "meta_inclination": 42.9997,
        "meta_ra_of_asc_node": 157.3072,
        "meta_arg_of_pericenter": 259.9504,
        "meta_mean_anomaly": 309.0934,
        "meta_ephemeris_type": 0,
        "meta_classification_type": "U",
        "meta_norad_cat_id": 66563,
        "meta_element_set_no": 999,
        "meta_rev_at_epoch": 368,
        "meta_bstar": -0.025296068,
        "meta_mean_motion_dot": -0.02002363,
        "meta_mean_motion_ddot": 0,
        "tle_line1": "1 66563U 25268G   25340.58335648 -.02002363  00000+0 -25296-1 0  9997",
        "tle_line2": "2 66563  42.9997 157.3072 0001325 259.9504 309.0934 15.62106782  3681"
      },
      "geometry": {
        "type": "Point",
        "coordinates": [
          68.47375145196699,
          -42.86859459434123
        ]
      }
    },
    {
      "type": "Feature",
      "properties": {
        "norad_id": 66564,
        "name": "STARLINK-35358",
        "group": "last-30-days",
        "lat": -42.72427007214859,
        "lon": 71.0747224163325,
        "alt_km": 391.66659711237935,
        "timestamp": "2025-12-07T05:38:08.685026+00:00",
        "meta_object_name": "STARLINK-35358",
        "meta_object_id": "2025-268H",
        "meta_epoch": "2025-12-06T14:00:01.999872",
        "meta_mean_motion": 15.6210414,
        "meta_eccentricity": 0.0001402,
        "meta_inclination": 42.9997,
        "meta_ra_of_asc_node": 157.3025,
        "meta_arg_of_pericenter": 259.2458,
        "meta_mean_anomaly": 311.7146,
        "meta_ephemeris_type": 0,
        "meta_classification_type": "U",
        "meta_norad_cat_id": 66564,
        "meta_element_set_no": 999,
        "meta_rev_at_epoch": 363,
        "meta_bstar": -0.025228945,
        "meta_mean_motion_dot": -0.0199758,
        "meta_mean_motion_ddot": 0,
        "tle_line1": "1 66564U 25268H   25340.58335648 -.01997580  00000+0 -25229-1 0  9997",
        "tle_line2": "2 66564  42.9997 157.3025 0001402 259.2458 311.7146 15.62104140  3633"
      },
      "geometry": {
        "type": "Point",
        "coordinates": [
          71.0747224163325,
          -42.72427007214859
        ]
      }
    }
  ]
}